SL-14 R/B               
1 21423U 91042B   26001.77074554  .00000868  00000+0  10677-3 0  9991
2 21423  82.4936 282.9415 0018567  99.9916 260.3395 14.81761418843168
ERS-1                   
1 21574U 91050A   26001.96560931  .00000657  00000+0  22479-3 0  9996
2 21574  98.7896  18.5258 0032667  41.6860 318.6808 14.39383961806135
ARIANE 40 R/B           
1 21610U 91050F   26001.75902453  .00000736  00000+0  23311-3 0  9997
2 21610  98.2137  56.4644 0001974 278.8564  81.2403 14.42833082809349
INTERCOSMOS 25          
1 21819U 91086A   26001.94544483  .00002363  00000+0  47068-3 0  9996
2 21819  82.6075 350.3531 1486028 260.8156  82.2438 12.11813819488606
SL-8 R/B                
1 21876U 92008B   26001.96820156  .00000157  00000+0  14554-3 0  9993
2 21876  82.9280 317.4009 0033965 323.0591 101.4832 13.75963981700242
SL-8 R/B                
1 21938U 92020B   26002.00841242  .00000239  00000+0  23147-3 0  9990
2 21938  82.9290 203.2659 0030024 122.6846  29.3586 13.75533499691963
USA 81                  
1 21949U 92023A   26001.94399879  .00000385  00000+0  13520-3 0  9997
2 21949  85.0090 169.9238 0001112 105.2201 254.9115 14.32336454 85233
COSMOS 2219             
1 22219U 92076A   26001.88528688  .00000415  00000+0  24247-3 0  9993
2 22219  71.0601 157.7200 0019950 299.0494  60.8630 14.14075353708939
SL-16 R/B               
1 22220U 92076B   26001.97885459 -.00000127  00000+0 -39321-4 0  9999
2 22220  71.0011 328.8978 0013815 206.7162 210.9922 14.16845606712384
COSMOS 2221             
1 22236U 92080A   26001.95339691  .00004466  00000+0  39649-3 0  9991
2 22236  82.5042 342.9755 0016076  60.1515 300.1302 14.95861479770817
SL-16 R/B               
1 22285U 92093B   26001.81461016 -.00000124  00000+0 -39399-4 0  9993
2 22285  71.0212 144.6554 0002906  14.0855 346.0349 14.15434718703695
COSMOS 2228             
1 22286U 92094A   26001.94647730  .00004056  00000+0  35059-3 0  9992
2 22286  82.5192 301.1998 0018387 161.0006 199.1907 14.96841962766073
