CCSDS_OMM_VERS = 2.0
CREATION_DATE  = 
ORIGINATOR     = 

OBJECT_NAME    = SL-14 R/B
OBJECT_ID      = 1991-042B
CENTER_NAME    = EARTH
REF_FRAME      = TEME
TIME_SYSTEM    = UTC
MEAN_ELEMENT_THEORY = SGP/SGP4

EPOCH          = 2026-01-01T18:29:52.414656
MEAN_MOTION    = 14.81761418
ECCENTRICITY   = .00185679
INCLINATION    = 82.4936
RA_OF_ASC_NODE = 282.9415
ARG_OF_PERICENTER = 99.9916
MEAN_ANOMALY   = 260.3395

EPHEMERIS_TYPE = 0
CLASSIFICATION_TYPE = U
NORAD_CAT_ID   = 21423
ELEMENT_SET_NO = 999
REV_AT_EPOCH   = 84316
BSTAR          = .10677013E-3
MEAN_MOTION_DOT = .868E-5
MEAN_MOTION_DDOT = 0

CCSDS_OMM_VERS = 2.0
CREATION_DATE  = 
ORIGINATOR     = 

OBJECT_NAME    = ERS-1
OBJECT_ID      = 1991-050A
CENTER_NAME    = EARTH
REF_FRAME      = TEME
TIME_SYSTEM    = UTC
MEAN_ELEMENT_THEORY = SGP/SGP4

EPOCH          = 2026-01-01T23:10:28.644384
MEAN_MOTION    = 14.39383961
ECCENTRICITY   = .00326671
INCLINATION    = 98.7896
RA_OF_ASC_NODE = 18.5258
ARG_OF_PERICENTER = 41.6860
MEAN_ANOMALY   = 318.6808

EPHEMERIS_TYPE = 0
CLASSIFICATION_TYPE = U
NORAD_CAT_ID   = 21574
ELEMENT_SET_NO = 999
REV_AT_EPOCH   = 80613
BSTAR          = .22479294E-3
MEAN_MOTION_DOT = .657E-5
MEAN_MOTION_DDOT = 0

CCSDS_OMM_VERS = 2.0
CREATION_DATE  = 
ORIGINATOR     = 

OBJECT_NAME    = ARIANE 40 R/B
OBJECT_ID      = 1991-050F
CENTER_NAME    = EARTH
REF_FRAME      = TEME
TIME_SYSTEM    = UTC
MEAN_ELEMENT_THEORY = SGP/SGP4

EPOCH          = 2026-01-01T18:12:59.719392
MEAN_MOTION    = 14.42833082
ECCENTRICITY   = .00019749
INCLINATION    = 98.2137
RA_OF_ASC_NODE = 56.4644
ARG_OF_PERICENTER = 278.8564
MEAN_ANOMALY   = 81.2403

EPHEMERIS_TYPE = 0
CLASSIFICATION_TYPE = U
NORAD_CAT_ID   = 21610
ELEMENT_SET_NO = 999
REV_AT_EPOCH   = 80934
BSTAR          = .23311219E-3
MEAN_MOTION_DOT = .736E-5
MEAN_MOTION_DDOT = 0

CCSDS_OMM_VERS = 2.0
CREATION_DATE  = 
ORIGINATOR     = 

OBJECT_NAME    = INTERCOSMOS 25
OBJECT_ID      = 1991-086A
CENTER_NAME    = EARTH
REF_FRAME      = TEME
TIME_SYSTEM    = UTC
MEAN_ELEMENT_THEORY = SGP/SGP4

EPOCH          = 2026-01-01T22:41:26.433312
MEAN_MOTION    = 12.11813819
ECCENTRICITY   = .1486028
INCLINATION    = 82.6075
RA_OF_ASC_NODE = 350.3531
ARG_OF_PERICENTER = 260.8156
MEAN_ANOMALY   = 82.2438

EPHEMERIS_TYPE = 0
CLASSIFICATION_TYPE = U
NORAD_CAT_ID   = 21819
ELEMENT_SET_NO = 999
REV_AT_EPOCH   = 48860
BSTAR          = .47067832E-3
MEAN_MOTION_DOT = .2363E-4
MEAN_MOTION_DDOT = 0

CCSDS_OMM_VERS = 2.0
CREATION_DATE  = 
ORIGINATOR     = 

OBJECT_NAME    = SL-8 R/B
OBJECT_ID      = 1992-008B
CENTER_NAME    = EARTH
REF_FRAME      = TEME
TIME_SYSTEM    = UTC
MEAN_ELEMENT_THEORY = SGP/SGP4

EPOCH          = 2026-01-01T23:14:12.614784
MEAN_MOTION    = 13.75963981
ECCENTRICITY   = .00339653
INCLINATION    = 82.9280
RA_OF_ASC_NODE = 317.4009
ARG_OF_PERICENTER = 323.0591
MEAN_ANOMALY   = 101.4832

EPHEMERIS_TYPE = 0
CLASSIFICATION_TYPE = U
NORAD_CAT_ID   = 21876
ELEMENT_SET_NO = 999
REV_AT_EPOCH   = 70024
BSTAR          = .14553564E-3
MEAN_MOTION_DOT = .157E-5
MEAN_MOTION_DDOT = 0

CCSDS_OMM_VERS = 2.0
CREATION_DATE  = 
ORIGINATOR     = 

OBJECT_NAME    = SL-8 R/B
OBJECT_ID      = 1992-020B
CENTER_NAME    = EARTH
REF_FRAME      = TEME
TIME_SYSTEM    = UTC
MEAN_ELEMENT_THEORY = SGP/SGP4

EPOCH          = 2026-01-02T00:12:06.833088
MEAN_MOTION    = 13.75533499
ECCENTRICITY   = .00300247
INCLINATION    = 82.9290
RA_OF_ASC_NODE = 203.2659
ARG_OF_PERICENTER = 122.6846
MEAN_ANOMALY   = 29.3586

EPHEMERIS_TYPE = 0
CLASSIFICATION_TYPE = U
NORAD_CAT_ID   = 21938
ELEMENT_SET_NO = 999
REV_AT_EPOCH   = 69196
BSTAR          = .23147458E-3
MEAN_MOTION_DOT = .239E-5
MEAN_MOTION_DDOT = 0

CCSDS_OMM_VERS = 2.0
CREATION_DATE  = 
ORIGINATOR     = 

OBJECT_NAME    = USA 81
OBJECT_ID      = 1992-023A
CENTER_NAME    = EARTH
REF_FRAME      = TEME
TIME_SYSTEM    = UTC
MEAN_ELEMENT_THEORY = SGP/SGP4

EPOCH          = 2026-01-01T22:39:21.495456
MEAN_MOTION    = 14.32336454
ECCENTRICITY   = .00011128
INCLINATION    = 85.0090
RA_OF_ASC_NODE = 169.9238
ARG_OF_PERICENTER = 105.2201
MEAN_ANOMALY   = 254.9115

EPHEMERIS_TYPE = 0
CLASSIFICATION_TYPE = U
NORAD_CAT_ID   = 21949
ELEMENT_SET_NO = 999
REV_AT_EPOCH   = 8523
BSTAR          = .13519579E-3
MEAN_MOTION_DOT = .385E-5
MEAN_MOTION_DDOT = 0

CCSDS_OMM_VERS = 2.0
CREATION_DATE  = 
ORIGINATOR     = 

OBJECT_NAME    = COSMOS 2219
OBJECT_ID      = 1992-076A
CENTER_NAME    = EARTH
REF_FRAME      = TEME
TIME_SYSTEM    = UTC
MEAN_ELEMENT_THEORY = SGP/SGP4

EPOCH          = 2026-01-01T21:14:48.786432
MEAN_MOTION    = 14.14075353
ECCENTRICITY   = .00199508
INCLINATION    = 71.0601
RA_OF_ASC_NODE = 157.7200
ARG_OF_PERICENTER = 299.0494
MEAN_ANOMALY   = 60.8630

EPHEMERIS_TYPE = 0
CLASSIFICATION_TYPE = U
NORAD_CAT_ID   = 22219
ELEMENT_SET_NO = 999
REV_AT_EPOCH   = 70893
BSTAR          = .24246842E-3
MEAN_MOTION_DOT = .415E-5
MEAN_MOTION_DDOT = 0

CCSDS_OMM_VERS = 2.0
CREATION_DATE  = 
ORIGINATOR     = 

OBJECT_NAME    = SL-16 R/B
OBJECT_ID      = 1992-076B
CENTER_NAME    = EARTH
REF_FRAME      = TEME
TIME_SYSTEM    = UTC
MEAN_ELEMENT_THEORY = SGP/SGP4

EPOCH          = 2026-01-01T23:29:33.036576
MEAN_MOTION    = 14.16845606
ECCENTRICITY   = .00138155
INCLINATION    = 71.0011
RA_OF_ASC_NODE = 328.8978
ARG_OF_PERICENTER = 206.7162
MEAN_ANOMALY   = 210.9922

EPHEMERIS_TYPE = 0
CLASSIFICATION_TYPE = U
NORAD_CAT_ID   = 22220
ELEMENT_SET_NO = 999
REV_AT_EPOCH   = 71238
BSTAR          = -.39320851E-4
MEAN_MOTION_DOT = -.127E-5
MEAN_MOTION_DDOT = 0

CCSDS_OMM_VERS = 2.0
CREATION_DATE  = 
ORIGINATOR     = 

OBJECT_NAME    = COSMOS 2221
OBJECT_ID      = 1992-080A
CENTER_NAME    = EARTH
REF_FRAME      = TEME
TIME_SYSTEM    = UTC
MEAN_ELEMENT_THEORY = SGP/SGP4

EPOCH          = 2026-01-01T22:52:53.493024
MEAN_MOTION    = 14.95861479
ECCENTRICITY   = .00160768
INCLINATION    = 82.5042
RA_OF_ASC_NODE = 342.9755
ARG_OF_PERICENTER = 60.1515
MEAN_ANOMALY   = 300.1302

EPHEMERIS_TYPE = 0
CLASSIFICATION_TYPE = U
NORAD_CAT_ID   = 22236
ELEMENT_SET_NO = 999
REV_AT_EPOCH   = 77081
BSTAR          = .39648977E-3
MEAN_MOTION_DOT = .4466E-4
MEAN_MOTION_DDOT = 0

CCSDS_OMM_VERS = 2.0
CREATION_DATE  = 
ORIGINATOR     = 

OBJECT_NAME    = SL-16 R/B
OBJECT_ID      = 1992-093B
CENTER_NAME    = EARTH
REF_FRAME      = TEME
TIME_SYSTEM    = UTC
MEAN_ELEMENT_THEORY = SGP/SGP4

EPOCH          = 2026-01-01T19:33:02.317824
MEAN_MOTION    = 14.15434718
ECCENTRICITY   = .00029061
INCLINATION    = 71.0212
RA_OF_ASC_NODE = 144.6554
ARG_OF_PERICENTER = 14.0855
MEAN_ANOMALY   = 346.0349

EPHEMERIS_TYPE = 0
CLASSIFICATION_TYPE = U
NORAD_CAT_ID   = 22285
ELEMENT_SET_NO = 999
REV_AT_EPOCH   = 70369
BSTAR          = -.3939916E-4
MEAN_MOTION_DOT = -.124E-5
MEAN_MOTION_DDOT = 0

CCSDS_OMM_VERS = 2.0
CREATION_DATE  = 
ORIGINATOR     = 

OBJECT_NAME    = COSMOS 2228
OBJECT_ID      = 1992-094A
CENTER_NAME    = EARTH
REF_FRAME      = TEME
TIME_SYSTEM    = UTC
MEAN_ELEMENT_THEORY = SGP/SGP4

EPOCH          = 2026-01-01T22:42:55.638720
MEAN_MOTION    = 14.96841962
ECCENTRICITY   = .00183872
INCLINATION    = 82.5192
RA_OF_ASC_NODE = 301.1998
ARG_OF_PERICENTER = 161.0006
MEAN_ANOMALY   = 199.1907

EPHEMERIS_TYPE = 0
CLASSIFICATION_TYPE = U
NORAD_CAT_ID   = 22286
ELEMENT_SET_NO = 999
REV_AT_EPOCH   = 76607
BSTAR          = .35059493E-3
MEAN_MOTION_DOT = .4056E-4
MEAN_MOTION_DDOT = 0

